0 COSMOS 2251 DEB
1 34614U 93036WK  13281.85033705  .00005637  00000-0  42238-2 0  9852
2 34614 073.8986 059.9342 0294783 178.6967 309.3507 13.76187536230740
0 COSMOS 2251 DEB
1 34614U 93036WK  13285.39895227  .00005819  00000-0  43592-2 0  9878
2 34614 073.8977 053.9742 0294432 172.2020 250.3538 13.76233891231239
0 COSMOS 2251 DEB
1 34614U 93036WK  13286.50327560  .00005559  00000-0  41651-2 0  9888
2 34614 073.8979 052.1187 0294316 170.1839 321.6454 13.76246046231382
0 COSMOS 2251 DEB
1 34614U 93036WK  13288.37892928  .00008386  00000-0  62728-2 0  9890
2 34614 073.8987 048.9684 0294072 166.7528 254.5563 13.76271352231643
0 COSMOS 2251 DEB
1 34614U 93036WK  13289.77282774  .00008199  00000-0  61352-2 0  9903
2 34614 073.8988 046.6276 0293825 164.2137 320.7243 13.76288213231836
0 COSMOS 2251 DEB
1 34614U 93036WK  13290.79135611  .00006888  00000-0  51579-2 0  9918
2 34614 073.8988 044.9169 0293619 162.3611 327.1481 13.76305091231979
0 COSMOS 2251 DEB
1 34614U 93036WK  13292.46324140  .00006445  00000-0  48289-2 0  9925
2 34614 073.8989 042.1097 0293280 159.2910 330.8501 13.76326387232203
0 COSMOS 2251 DEB
1 34614U 93036WK  13293.77812784  .00006891  00000-0  51633-2 0  9939
2 34614 073.8988 039.9013 0292985 156.8857 005.8122 13.76341870232389
0 COSMOS 2251 DEB
1 34614U 93036WK  13295.06567804  .00007125  00000-0  53401-2 0  9940
2 34614 073.8984 037.7386 0292702 154.5284 265.4080 13.76357665232566
